OBJECT_NAME,OBJECT_ID,EPOCH,MEAN_MOTION,ECCENTRICITY,INCLINATION,RA_OF_ASC_NODE,ARG_OF_PERICENTER,MEAN_ANOMALY,EPHEMERIS_TYPE,CLASSIFICATION_TYPE,NORAD_CAT_ID,ELEMENT_SET_NO,REV_AT_EPOCH,BSTAR,MEAN_MOTION_DOT,MEAN_MOTION_DDOT
SL-16 R/B,1994-077B,2026-06-11T06:08:06.421632,14.15572251,.00026925,70.9805,155.6415,331.7159,28.3818,0,U,23405,999,62947,-.77189211E-4,-.199E-5,0
ARIANE 40+ R/B,1995-021B,2026-06-11T05:13:33.499776,14.39830019,.00060452,98.4411,232.3787,212.5753,212.6658,0,U,23561,999,63270,.77290148E-4,.199E-5,0
SL-16 R/B,1995-058B,2026-06-11T04:42:55.509120,14.15505436,.00134945,71.0215,343.9367,328.6750,31.3568,0,U,23705,999,58108,.70997958E-4,.91E-6,0
SL-16 R/B,1996-051B,2026-06-11T05:22:46.342272,14.12443900,.00149612,70.7638,337.2691,345.9369,14.1332,0,U,24298,999,53485,.90594318E-4,.118E-5,0
ORBVIEW 2 (SEASTAR),1997-037A,2026-06-11T03:57:56.270304,14.35550331,.00030327,98.8682,329.0177,128.1884,231.9574,0,U,24883,999,52188,.8315015E-4,.193E-5,0
SL-16 R/B,1998-043G,2026-06-11T02:50:35.453760,14.26067578,.00109139,98.8362,116.2256,102.1687,258.0716,0,U,25400,999,45230,.28630328E-4,.23E-6,0
SL-16 R/B,1998-045B,2026-06-10T22:47:27.069504,14.16204937,.00095089,71.0121,345.4479,249.4975,110.5128,0,U,25407,999,44030,-.24034143E-4,-.95E-6,0
ISS (ZARYA),1998-067A,2026-06-11T03:01:20.659584,15.49161426,.00050923,51.6353,330.0904,172.2857,187.8210,0,U,25544,999,57081,.53892498E-4,.2535E-4,0
CZ-4B R/B,1999-025C,2026-06-11T03:25:33.053952,14.18282446,.0038218,98.6485,204.1332,76.5542,350.7762,0,U,25732,999,40141,.36831502E-4,.34E-6,0
OKEAN-O,1999-039A,2026-06-11T03:06:28.405152,14.80460031,.00017432,97.9318,220.9967,76.1548,283.9858,0,U,25860,999,44821,.70668112E-4,.488E-5,0
SL-16 R/B,1999-039B,2026-06-11T03:45:57.163968,14.81839095,.00138062,97.9839,221.0369,318.1920,41.8237,0,U,25861,999,45070,.55785469E-4,.387E-5,0
DELTA 2 R/B,1999-041E,2026-06-11T02:07:11.545248,14.12004828,.05008827,51.7663,288.1591,263.9874,90.3783,0,U,25876,999,37622,.15076763E-3,.702E-5,0
HELIOS 1B,1999-064A,2026-06-11T04:39:04.666464,14.87990510,.00024679,98.1621,67.1600,99.3232,260.8262,0,U,25977,999,69916,.12912263E-3,.1126E-4,0
TERRA,1999-068A,2026-06-11T06:16:19.444224,14.61098276,.00011371,97.9458,212.0424,214.4897,187.4080,0,U,25994,999,40874,.71518675E-4,.307E-5,0
SL-16 R/B,2000-006B,2026-06-10T23:44:28.995936,14.15835584,.00152019,71.0028,261.6573,32.6888,327.5173,0,U,26070,999,36176,-.11721103E-3,-.279E-5,0
TITAN 4B R/B,2000-047B,2026-06-11T05:34:00.264000,15.10161614,.00456038,67.9872,137.3353,293.2345,66.4006,0,U,26474,999,40703,.16160832E-3,.2568E-4,0
ENVISAT,2002-009A,2026-06-11T02:57:41.829120,14.39063370,.00013347,98.3832,113.5771,90.0120,294.2271,0,U,27386,999,27261,.32563654E-4,.58E-6,0
IDEFIX & ARIANE 42P R/B,2002-021B,2026-06-11T02:48:02.016864,14.31079285,.00105857,98.5943,99.6656,273.8669,86.1303,0,U,27422,999,25738,.79351879E-4,.165E-5,0
AQUA,2002-022A,2026-06-11T05:54:40.083264,14.62148978,.00013423,98.4275,131.4106,52.9973,55.0227,0,U,27424,999,28240,.13898476E-3,.65E-5,0
CZ-4B R/B,2002-024C,2026-06-11T03:47:27.745728,14.14563387,.00511308,98.8701,215.0171,117.0064,307.3361,0,U,27432,999,24245,.32047793E-4,.18E-6,0
MIDORI II (ADEOS-II),2002-056A,2026-06-11T02:49:48.510912,14.29346306,.00022255,98.7876,121.3262,85.1586,274.9849,0,U,27597,999,22364,.99792456E-4,.209E-5,0
H-2A R/B,2002-056E,2026-06-10T20:52:02.175168,14.33819369,.00689613,98.3309,118.7744,243.6652,170.4391,0,U,27601,999,22746,.67954319E-4,.152E-5,0
CZ-4B R/B,2003-049C,2026-06-11T05:58:15.400704,14.55096168,.00471506,98.6895,160.8589,307.1410,52.5483,0,U,28059,999,20020,.70234918E-4,.255E-5,0
CZ-2C R/B,2004-012C,2026-06-11T06:20:38.320224,15.77852185,.00088387,97.7097,237.2433,308.8410,51.2066,0,U,28222,999,21896,.48338921E-3,.81855E-3,0
SL-16 R/B,2004-021B,2026-06-11T01:55:16.612896,14.14611092,.00074666,71.0017,36.5069,261.8817,98.1458,0,U,28353,999,13604,-.11637608E-3,-.271E-5,0
CZ-4B R/B,2004-035C,2026-06-11T01:15:44.570880,15.30536620,.00306368,97.3373,195.1953,0.3054,359.8200,0,U,28415,999,19418,.24803443E-3,.735E-4,0
CZ-2C R/B,2004-046B,2026-06-11T05:33:27.760320,14.27025245,.01382233,98.1950,71.3843,237.9929,120.7760,0,U,28480,999,12184,.31422256E-4,.42E-6,0
ARIANE 5 R/B,2004-049H,2026-06-11T04:51:40.370112,14.85440829,.00848633,98.2716,334.2246,48.6564,312.1911,0,U,28499,999,15967,.73720086E-4,.613E-5,0
CZ-2D R/B,2005-024B,2026-06-11T00:48:43.017408,15.68891177,.00043945,97.3495,181.1578,66.7982,293.3742,0,U,28738,999,15437,.46356532E-3,.53295E-3,0
ALOS (DAICHI),2006-002A,2026-06-11T07:19:04.669824,14.70038165,.00016717,98.1322,117.8908,58.9533,301.1837,0,U,28931,999,8723,.15259286E-3,.866E-5,0
