SL-16 R/B               
1 23405U 94077B   26162.25562988 -.00000199  00000+0 -77189-4 0  9999
2 23405  70.9805 155.6415 0002692 331.7159  28.3818 14.15572251629471
ARIANE 40+ R/B          
1 23561U 95021B   26162.21774884  .00000199  00000+0  77290-4 0  9999
2 23561  98.4411 232.3787 0006045 212.5753 212.6658 14.39830019632704
SL-16 R/B               
1 23705U 95058B   26162.19647580  .00000091  00000+0  70998-4 0  9997
2 23705  71.0215 343.9367 0013494 328.6750  31.3568 14.15505436581084
SL-16 R/B               
1 24298U 96051B   26162.22414748  .00000118  00000+0  90594-4 0  9995
2 24298  70.7638 337.2691 0014961 345.9369  14.1332 14.12443900534856
ORBVIEW 2 (SEASTAR)     
1 24883U 97037A   26162.16523461  .00000193  00000+0  83150-4 0  9999
2 24883  98.8682 329.0177 0003032 128.1884 231.9574 14.35550331521882
SL-16 R/B               
1 25400U 98043G   26162.11846590  .00000023  00000+0  28630-4 0  9993
2 25400  98.8362 116.2256 0010913 102.1687 258.0716 14.26067578452300
SL-16 R/B               
1 25407U 98045B   26161.94961886 -.00000095  00000+0 -24034-4 0  9993
2 25407  71.0121 345.4479 0009508 249.4975 110.5128 14.16204937440306
ISS (ZARYA)             
1 25544U 98067A   26162.12593356  .00002535  00000+0  53892-4 0  9996
2 25544  51.6353 330.0904 0005092 172.2857 187.8210 15.49161426570819
CZ-4B R/B               
1 25732U 99025C   26162.14274368  .00000034  00000+0  36832-4 0  9998
2 25732  98.6485 204.1332 0038218  76.5542 350.7762 14.18282446401417
OKEAN-O                 
1 25860U 99039A   26162.12949543  .00000488  00000+0  70668-4 0  9995
2 25860  97.9318 220.9967 0001743  76.1548 283.9858 14.80460031448210
SL-16 R/B               
1 25861U 99039B   26162.15691162  .00000387  00000+0  55785-4 0  9991
2 25861  97.9839 221.0369 0013806 318.1920  41.8237 14.81839095450703
DELTA 2 R/B             
1 25876U 99041E   26162.08832807  .00000702  00000+0  15077-3 0  9995
2 25876  51.7663 288.1591 0500882 263.9874  90.3783 14.12004828376224
HELIOS 1B               
1 25977U 99064A   26162.19380401  .00001126  00000+0  12912-3 0  9998
2 25977  98.1621  67.1600 0002467  99.3232 260.8262 14.87990510699167
TERRA                   
1 25994U 99068A   26162.26133616  .00000307  00000+0  71519-4 0  9992
2 25994  97.9458 212.0424 0001137 214.4897 187.4080 14.61098276408740
SL-16 R/B               
1 26070U 00006B   26161.98922449 -.00000279  00000+0 -11721-3 0  9998
2 26070  71.0028 261.6573 0015201  32.6888 327.5173 14.15835584361764
TITAN 4B R/B            
1 26474U 00047B   26162.23194750  .00002568  00000+0  16161-3 0  9990
2 26474  67.9872 137.3353 0045603 293.2345  66.4006 15.10161614407037
ENVISAT                 
1 27386U 02009A   26162.12340080  .00000058  00000+0  32564-4 0  9998
2 27386  98.3832 113.5771 0001334  90.0120 294.2271 14.39063370272610
IDEFIX & ARIANE 42P R/B 
1 27422U 02021B   26162.11669001  .00000165  00000+0  79352-4 0  9994
2 27422  98.5943  99.6656 0010585 273.8669  86.1303 14.31079285257384
AQUA                    
1 27424U 02022A   26162.24629726  .00000650  00000+0  13898-3 0  9992
2 27424  98.4275 131.4106 0001342  52.9973  55.0227 14.62148978282404
CZ-4B R/B               
1 27432U 02024C   26162.15796002  .00000018  00000+0  32048-4 0  9992
2 27432  98.8701 215.0171 0051130 117.0064 307.3361 14.14563387242451
MIDORI II (ADEOS-II)    
1 27597U 02056A   26162.11792258  .00000209  00000+0  99792-4 0  9995
2 27597  98.7876 121.3262 0002225  85.1586 274.9849 14.29346306223646
H-2A R/B                
1 27601U 02056E   26161.86946962  .00000152  00000+0  67954-4 0  9997
2 27601  98.3309 118.7744 0068961 243.6652 170.4391 14.33819369227463
CZ-4B R/B               
1 28059U 03049C   26162.24878936  .00000255  00000+0  70235-4 0  9996
2 28059  98.6895 160.8589 0047150 307.1410  52.5483 14.55096168200207
CZ-2C R/B               
1 28222U 04012C   26162.26433241  .00081855  00000+0  48339-3 0  9991
2 28222  97.7097 237.2433 0008838 308.8410  51.2066 15.77852185218967
SL-16 R/B               
1 28353U 04021B   26162.08005339 -.00000271  00000+0 -11638-3 0  9996
2 28353  71.0017  36.5069 0007466 261.8817  98.1458 14.14611092136042
CZ-4B R/B               
1 28415U 04035C   26162.05259920  .00007350  00000+0  24803-3 0  9995
2 28415  97.3373 195.1953 0030636   0.3054 359.8200 15.30536620194188
CZ-2C R/B               
1 28480U 04046B   26162.23157130  .00000042  00000+0  31422-4 0  9996
2 28480  98.1950  71.3843 0138223 237.9929 120.7760 14.27025245121843
ARIANE 5 R/B            
1 28499U 04049H   26162.20255058  .00000613  00000+0  73720-4 0  9995
2 28499  98.2716 334.2246 0084863  48.6564 312.1911 14.85440829159674
CZ-2D R/B               
1 28738U 05024B   26162.03383122  .00053295  00000+0  46357-3 0  9999
2 28738  97.3495 181.1578 0004394  66.7982 293.3742 15.68891177154379
ALOS (DAICHI)           
1 28931U 06002A   26162.30491516  .00000866  00000+0  15259-3 0  9991
2 28931  98.1322 117.8908 0001671  58.9533 301.1837 14.70038165 87230
